{
"type": "FeatureCollection",
"name": "glacier-regions-19",
"crs": { "type": "name", "properties": { "name": "urn:ogc:def:crs:OGC:1.3:CRS84" } },
"features": [
{ "type": "Feature", "properties": { "region_id": "01", "name": "Alaska" }, "geometry": { "type": "Polygon", "coordinates": [ [ [ -130.6, 54.5 ], [ -134.0, 54.5 ], [ -134.001648, 50.0 ], [ -180.0, 50.0 ], [ -180.0, 57.0 ], [ -169.0, 57.0 ], [ -169.0, 72.0 ], [ -134.0, 72.0 ], [ -134.0, 62.4 ], [ -132.0, 62.4 ], [ -132.0, 61.0 ], [ -131.84238979, 60.970692620000598 ], [ -131.85655146, 60.844673410000297 ], [ -131.52260786, 60.779925530000597 ], [ -131.52592596, 60.715492940000303 ], [ -131.43457489, 60.672305250000598 ], [ -131.238157199999989, 60.6787988900005 ], [ -130.87634731, 60.539489370000403 ], [ -130.91781298, 60.495370940000598 ], [ -131.38983976, 60.530768340000598 ], [ -131.48754231, 60.500449320000399 ], [ -131.29126119, 60.413637789999903 ], [ -131.42496946, 60.3314887800002 ], [ -131.382078080000014, 60.205792910000099 ], [ -131.15890235, 60.2448832600003 ], [ -130.92556663, 60.131783780000703 ], [ -130.948585040000012, 60.061408540000699 ], [ -130.90493254, 59.991208120000501 ], [ -130.65849999, 59.935082350000798 ], [ -130.72859406, 59.874021320000303 ], [ -130.6170454, 59.760136880000601 ], [ -130.65315038, 59.743128790000398 ], [ -130.61584657, 59.64520468 ], [ -130.67049831, 59.595960730000101 ], [ -130.396623, 59.560671670000403 ], [ -130.44309672, 59.49558974 ], [ -130.35512734, 59.377407050000301 ], [ -130.41024812, 59.370474990000702 ], [ -130.37150316, 59.330873390000299 ], [ -130.4243821, 59.3383770900004 ], [ -130.417202120000013, 59.290116440000503 ], [ -130.489352700000012, 59.2534136 ], [ -130.37434221, 59.158626060000202 ], [ -130.44759439, 59.126910110000203 ], [ -130.47227453, 58.957592050000599 ], [ -130.62762905, 58.9552904 ], [ -130.65277138, 58.84324831 ], [ -130.7280912, 58.824652430000697 ], [ -130.62242967, 58.686344250000303 ], [ -130.47951605, 58.675236060000799 ], [ -130.58929609, 58.630973470000299 ], [ -130.52176443, 58.576175280000399 ], [ -130.54622283, 58.49107546 ], [ -130.453220499999986, 58.4624456900005 ], [ -130.404385420000011, 58.540106950000798 ], [ -130.19942297, 58.5329894 ], [ -130.19393323, 58.478368810000603 ], [ -130.06307759, 58.427496720000399 ], [ -129.7863261, 58.393323580000498 ], [ -129.645255, 58.399864770000498 ], [ -129.60401095, 58.4603131300005 ], [ -129.520821430000012, 58.414160540000502 ], [ -129.63223496, 58.290575980000099 ], [ -129.60717537, 58.263676970000198 ], [ -129.54380153, 58.245550390000503 ], [ -129.38134341, 58.3227659300005 ], [ -128.91556282, 58.203620050000602 ], [ -128.88123049, 58.264039590000301 ], [ -128.694377010000011, 58.27122138 ], [ -128.52796835, 58.131270140000701 ], [ -128.29519489, 58.209990590000402 ], [ -128.325176230000011, 58.310903959999898 ], [ -128.26093096, 58.352688720000103 ], [ -128.30995843, 58.396760840000802 ], [ -128.26646691, 58.417623470000301 ], [ -127.81951797, 58.412543870000299 ], [ -127.7950903, 58.361618380000401 ], [ -127.64893536, 58.356639530000798 ], [ -127.58594268, 58.300112920000601 ], [ -127.71582918, 58.272774280000696 ], [ -127.65041343, 58.2103206900006 ], [ -127.67599943, 58.166511840000098 ], [ -127.40166842, 58.103888360000397 ], [ -127.584962189999004, 57.980930630000302 ], [ -127.46561833, 57.8982813 ], [ -127.26370767, 57.931875590000303 ], [ -127.2934611, 57.850448870000498 ], [ -127.22254453, 57.8122227 ], [ -127.0375309, 57.8151308 ], [ -126.90099213, 57.884264730000297 ], [ -126.879100672422993, 57.798759451658498 ], [ -126.958864402009993, 57.746215646408899 ], [ -126.864322, 57.677713793594599 ], [ -126.8880841, 57.628248845382601 ], [ -126.791684008, 57.580075911869201 ], [ -127.04995376, 57.5082116600001 ], [ -127.148803, 57.525801818662302 ], [ -127.229173, 57.60690328498 ], [ -127.31989706, 57.5785914 ], [ -127.284028, 57.466572043562799 ], [ -127.469005, 57.364861413051997 ], [ -127.525138, 57.265730334163003 ], [ -127.47050531, 57.223438980000502 ], [ -127.567231, 57.157579907524898 ], [ -127.660363, 57.180759540411103 ], [ -127.74328, 57.297920231870599 ], [ -127.836412, 57.279890619300197 ], [ -127.928257, 57.167879948157001 ], [ -127.901473, 57.125399092745297 ], [ -128.021389, 57.1537196630197 ], [ -128.093089436915989, 57.115621298701598 ], [ -128.132735309999987, 57.172783880000701 ], [ -128.219119, 57.171749275590599 ], [ -128.379859, 57.134409357566703 ], [ -128.432167, 57.0532988083201 ], [ -128.666896, 57.170459499779597 ], [ -128.77076763, 57.084465770000897 ], [ -128.671999, 56.961888218441302 ], [ -128.677102, 56.871767404373699 ], [ -128.595454, 56.8897879340157 ], [ -128.376034, 56.748166916787298 ], [ -128.185954, 56.752027161292098 ], [ -128.187232, 56.647746062087698 ], [ -128.039245, 56.668346143351798 ], [ -127.856824, 56.5511854518927 ], [ -127.89637, 56.455914617509301 ], [ -128.003524, 56.404414414347698 ], [ -128.236984, 56.468785126835002 ], [ -128.270162950000014, 56.3977763700004 ], [ -128.212747, 56.332314129922501 ], [ -128.3181342, 56.258941057249103 ], [ -128.270162950000014, 56.093669840000501 ], [ -128.623723, 56.059481131236701 ], [ -128.719852, 55.882318615776498 ], [ -128.613967, 55.827484977949098 ], [ -128.5666, 55.719225556172198 ], [ -128.409172, 55.675636583514503 ], [ -128.184865, 55.518156773566297 ], [ -128.282389, 55.474567800908503 ], [ -128.42728, 55.539247332955703 ], [ -128.508091, 55.525186960029302 ], [ -128.549887, 55.3944291249841 ], [ -128.470471, 55.373338565594601 ], [ -128.495545, 55.298813139327201 ], [ -128.395249, 55.2866238496199 ], [ -128.384139562547006, 55.149650180226701 ], [ -128.582899, 55.113158085956499 ], [ -128.831335, 55.202543182836102 ], [ -128.790808, 55.1252747122385 ], [ -128.943925, 55.028314453200402 ], [ -128.947678, 54.946504518478797 ], [ -129.4652142, 54.843439563551797 ], [ -129.373241623014991, 54.771034286811798 ], [ -129.458981099999988, 54.619686832850697 ], [ -129.6872674, 54.596007044493497 ], [ -129.651181, 54.5561747599886 ], [ -129.739219, 54.4161250893467 ], [ -129.92425, 54.258000391493198 ], [ -130.036156, 54.211314140302903 ], [ -130.033177, 54.2805896340437 ], [ -130.15787953419499, 54.397689945099998 ], [ -130.291324, 54.452266060841801 ], [ -130.43158, 54.381482801012197 ], [ -130.6, 54.5 ] ] ] } },
{ "type": "Feature", "properties": { "region_id": "02", "name": "Western Canada and USA" }, "geometry": { "type": "Polygon", "coordinates": [ [ [ -134.0017344, 54.5 ], [ -130.6, 54.5 ], [ -130.43158, 54.381482801012197 ], [ -130.291324, 54.4522660608419 ], [ -130.15787953419499, 54.397689945099998 ], [ -130.033177, 54.2805896340438 ], [ -130.036156, 54.211314140302797 ], [ -129.92425, 54.258000391493198 ], [ -129.739219, 54.4161250893467 ], [ -129.651181, 54.5561747599887 ], [ -129.6872674, 54.596007044493597 ], [ -129.458981099999988, 54.619686832850803 ], [ -129.373241623014991, 54.771034286811798 ], [ -129.4652142, 54.843439563551698 ], [ -128.947678, 54.946504518478903 ], [ -128.943925, 55.028314453200402 ], [ -128.790808, 55.1252747122385 ], [ -128.831335, 55.202543182836202 ], [ -128.582899, 55.113158085956499 ], [ -128.384139562547006, 55.149650180226701 ], [ -128.395249, 55.28662384962 ], [ -128.495545, 55.298813139327201 ], [ -128.470471, 55.3733385655947 ], [ -128.549887, 55.3944291249841 ], [ -128.508091, 55.525186960029203 ], [ -128.42728, 55.539247332955803 ], [ -128.282389, 55.474567800908602 ], [ -128.184865, 55.518156773566403 ], [ -128.409172, 55.675636583514503 ], [ -128.5666, 55.719225556172297 ], [ -128.613967, 55.827484977949197 ], [ -128.719852, 55.882318615776498 ], [ -128.623723, 56.059481131236701 ], [ -128.270162950000014, 56.093669840000601 ], [ -128.3181342, 56.258941057249203 ], [ -128.212747, 56.332314129922501 ], [ -128.270162950000014, 56.3977763700004 ], [ -128.236984, 56.468785126835101 ], [ -128.003524, 56.404414414347698 ], [ -127.89637, 56.455914617509201 ], [ -127.856824, 56.551185451892799 ], [ -128.039245, 56.668346143351798 ], [ -128.187232, 56.647746062087698 ], [ -128.185954, 56.752027161292098 ], [ -128.376034, 56.748166916787397 ], [ -128.595454, 56.8897879340158 ], [ -128.677102, 56.871767404373799 ], [ -128.671999, 56.961888218441501 ], [ -128.77076763, 57.084465770000897 ], [ -128.666896, 57.170459499779597 ], [ -128.432167, 57.0532988083201 ], [ -128.379859, 57.134409357566803 ], [ -128.219119, 57.171749275590699 ], [ -128.132735309999987, 57.1727838800008 ], [ -128.093089436915989, 57.115621298701697 ], [ -128.021389, 57.1537196630197 ], [ -127.901473, 57.125399092745198 ], [ -127.928257, 57.167879948156902 ], [ -127.836412, 57.279890619300197 ], [ -127.74328, 57.297920231870798 ], [ -127.660363, 57.180759540411103 ], [ -127.567231, 57.157579907524998 ], [ -127.47050531, 57.223438980000502 ], [ -127.525138, 57.265730334163003 ], [ -127.469005, 57.364861413052097 ], [ -127.284028, 57.466572043562898 ], [ -127.31989706, 57.5785914 ], [ -127.229173, 57.606903284980099 ], [ -127.148803, 57.525801818662302 ], [ -127.04995376, 57.508211660000299 ], [ -126.791684008, 57.580075911869201 ], [ -126.8880841, 57.628248845382601 ], [ -126.864322, 57.677713793594698 ], [ -126.958864402009993, 57.746215646408999 ], [ -126.879100672422993, 57.798759451658597 ], [ -126.90099213, 57.884264730000403 ], [ -127.0375309, 57.8151308 ], [ -127.22254453, 57.8122227 ], [ -127.2934611, 57.850448870000498 ], [ -127.26370767, 57.931875590000502 ], [ -127.46561833, 57.8982813 ], [ -127.584962189999004, 57.980930630000302 ], [ -127.40166842, 58.103888360000497 ], [ -127.67599943, 58.166511840000197 ], [ -127.65041343, 58.2103206900006 ], [ -127.71582918, 58.272774280000803 ], [ -127.58594268, 58.300112920000601 ], [ -127.64893536, 58.356639530000898 ], [ -127.7950903, 58.3616183800006 ], [ -127.81951797, 58.412543870000299 ], [ -128.26646691, 58.417623470000301 ], [ -128.30995843, 58.396760840000901 ], [ -128.26093096, 58.352688720000103 ], [ -128.325176230000011, 58.31090396 ], [ -128.29519489, 58.209990590000501 ], [ -128.52796835, 58.131270140000701 ], [ -128.694377010000011, 58.27122138 ], [ -128.88123049, 58.264039590000401 ], [ -128.91556282, 58.203620050000602 ], [ -129.38134341, 58.3227659300006 ], [ -129.54380153, 58.245550390000602 ], [ -129.60717537, 58.263676970000198 ], [ -129.63223496, 58.290575980000099 ], [ -129.520821430000012, 58.414160540000502 ], [ -129.60401095, 58.4603131300005 ], [ -129.645255, 58.399864770000498 ], [ -129.7863261, 58.393323580000498 ], [ -130.06307759, 58.427496720000399 ], [ -130.19393323, 58.478368810000703 ], [ -130.19942297, 58.5329894 ], [ -130.404385420000011, 58.540106950000798 ], [ -130.453220499999986, 58.4624456900005 ], [ -130.54622283, 58.491075460000097 ], [ -130.52176443, 58.576175280000299 ], [ -130.58929609, 58.630973470000399 ], [ -130.47951605, 58.675236060000898 ], [ -130.62242967, 58.686344250000403 ], [ -130.7280912, 58.824652430000803 ], [ -130.65277138, 58.84324831 ], [ -130.62762905, 58.9552904 ], [ -130.47227453, 58.957592050000699 ], [ -130.44759439, 59.126910110000203 ], [ -130.37434221, 59.158626060000302 ], [ -130.489352700000012, 59.2534136 ], [ -130.417202120000013, 59.290116440000602 ], [ -130.4243821, 59.3383770900004 ], [ -130.37150316, 59.330873390000399 ], [ -130.41024812, 59.370474990000702 ], [ -130.35512734, 59.3774070500004 ], [ -130.44309672, 59.49558974 ], [ -130.396623, 59.560671670000403 ], [ -130.67049831, 59.595960730000101 ], [ -130.61584657, 59.645204680000099 ], [ -130.65315038, 59.743128790000497 ], [ -130.6170454, 59.760136880000601 ], [ -130.72859406, 59.874021320000502 ], [ -130.65849999, 59.935082350000897 ], [ -130.90493254, 59.991208120000501 ], [ -130.948585040000012, 60.061408540000699 ], [ -130.92556663, 60.131783780000703 ], [ -131.15890235, 60.2448832600004 ], [ -131.382078080000014, 60.205792910000199 ], [ -131.42496946, 60.331488780000299 ], [ -131.29126119, 60.413637789999903 ], [ -131.48754231, 60.500449320000399 ], [ -131.38983976, 60.530768340000598 ], [ -130.91781298, 60.495370940000697 ], [ -130.87634731, 60.539489370000503 ], [ -131.238157199999989, 60.6787988900006 ], [ -131.43457489, 60.672305250000598 ], [ -131.52592596, 60.715492940000303 ], [ -131.52260786, 60.779925530000703 ], [ -131.85655146, 60.844673410000297 ], [ -131.84238979, 60.970692620000598 ], [ -132.0, 61.0 ], [ -132.0, 62.4 ], [ -134.0, 62.4 ], [ -134.0, 74.0 ], [ -104.0, 74.0 ], [ -104.0, 35.0 ], [ -134.0, 35.0 ], [ -134.0017344, 54.5 ] ] ] } },
{ "type": "Feature", "properties": { "region_id": "03", "name": "Arctic Canada North" }, "geometry": { "type": "Polygon", "coordinates": [ [ [ -125.000000000415, 74.0 ], [ -125.000000000415, 84.999999999941807 ], [ -59.999999999656197, 84.999999999941807 ], [ -59.999999999656197, 82.500000000058193 ], [ -60.300000000268497, 82.299999999639098 ], [ -60.859999999674997, 82.100000000093104 ], [ -61.859999999980602, 81.929999999760199 ], [ -64.329999999816195, 81.270000000134999 ], [ -67.020000000098705, 80.780000000027897 ], [ -67.799999999955602, 80.560000000405097 ], [ -68.639999999933906, 80.299999999871901 ], [ -69.349999999647494, 79.94 ], [ -70.080000000269095, 79.640000000304994 ], [ -72.250000000360203, 79.110000000044195 ], [ -73.110000000378903, 78.810000000346903 ], [ -73.8, 78.489999999641398 ], [ -74.280000000164407, 78.059999999648397 ], [ -74.730000000214204, 77.510000000300394 ], [ -74.999999999898094, 77.000000000116401 ], [ -74.999999999898094, 74.000000000058193 ], [ -125.000000000415, 74.0 ] ] ] } },
{ "type": "Feature", "properties": { "region_id": "04", "name": "Arctic Canada South" }, "geometry": { "type": "Polygon", "coordinates": [ [ [ -90.0, 74.0 ], [ -65.0, 74.0 ], [ -65.0, 70.0 ], [ -58.0, 70.0 ], [ -58.0, 57.0 ], [ -90.0, 57.0 ], [ -90.0, 74.0 ] ] ] } },
{ "type": "Feature", "properties": { "region_id": "05", "name": "Greenland Periphery" }, "geometry": { "type": "Polygon", "coordinates": [ [ [ -75.0, 77.0 ], [ -74.73, 77.51 ], [ -74.28, 78.06 ], [ -73.8, 78.49 ], [ -73.11, 78.81 ], [ -72.25, 79.11 ], [ -70.08, 79.64 ], [ -69.35, 79.94 ], [ -68.64, 80.3 ], [ -67.02, 80.78 ], [ -64.33, 81.27 ], [ -61.86, 81.93 ], [ -60.86, 82.1 ], [ -60.3, 82.3 ], [ -60.0, 82.5 ], [ -60.0, 85.0 ], [ -10.0, 85.0 ], [ -10.0, 67.0 ], [ -26.0, 67.0 ], [ -26.0, 59.0 ], [ -58.0, 59.0 ], [ -58.0, 70.0 ], [ -65.0, 70.0 ], [ -65.0, 74.0 ], [ -75.0, 74.0 ], [ -75.0, 77.0 ] ] ] } },
{ "type": "Feature", "properties": { "region_id": "06", "name": "Iceland" }, "geometry": { "type": "Polygon", "coordinates": [ [ [ -26.0, 59.0 ], [ -26.0, 67.0 ], [ -10.0, 67.0 ], [ -10.0, 59.0 ], [ -26.0, 59.0 ] ] ] } },
{ "type": "Feature", "properties": { "region_id": "07", "name": "Svalbard and Jan Mayen" }, "geometry": { "type": "Polygon", "coordinates": [ [ [ -10.0, 70.0 ], [ -10.0, 83.0 ], [ 35.0, 83.0 ], [ 35.0, 74.0 ], [ 4.0, 74.0 ], [ 4.0, 70.0 ], [ -10.0, 70.0 ] ] ] } },
{ "type": "Feature", "properties": { "region_id": "08", "name": "Scandinavia" }, "geometry": { "type": "Polygon", "coordinates": [ [ [ 4.0, 58.0 ], [ 4.0, 74.0 ], [ 35.0, 74.0 ], [ 35.0, 58.0 ], [ 4.0, 58.0 ] ] ] } },
{ "type": "Feature", "properties": { "region_id": "09", "name": "Russian Arctic" }, "geometry": { "type": "Polygon", "coordinates": [ [ [ 35.0, 70.0 ], [ 35.0, 83.0 ], [ 110.0, 83.0 ], [ 110.0, 77.0 ], [ 70.0, 77.0 ], [ 70.0, 72.0 ], [ 59.0, 72.0 ], [ 59.0, 70.0 ], [ 35.0, 70.0 ] ] ] } },
{ "type": "Feature", "properties": { "region_id": "10", "name": "North Asia" }, "geometry": { "type": "MultiPolygon", "coordinates": [ [ [ [ 128.0, 46.0 ], [ 57.0, 46.0 ], [ 57.0, 69.999999999709004 ], [ 59.0, 69.999999999709004 ], [ 59.0, 72.000000000290996 ], [ 70.0, 72.000000000290996 ], [ 70.0, 77.000000000116401 ], [ 110.000000000192998, 77.000000000116401 ], [ 110.000000000192998, 78.000000000407496 ], [ 179.999999999874007, 78.000000000407496 ], [ 179.999999999874007, 57.000000000058201 ], [ 164.99999999963299, 57.000000000058201 ], [ 164.99999999963299, 46.0 ], [ 146.0, 46.0 ], [ 146.0, 31.0 ], [ 128.0, 31.0 ], [ 128.0, 46.0 ] ] ], [ [ [ -180.0, 78.0 ], [ -169.0, 78.0 ], [ -169.0, 57.0 ], [ -180.0, 57.0 ], [ -180.0, 78.0 ] ] ] ] } },
{ "type": "Feature", "properties": { "region_id": "11", "name": "Central Europe" }, "geometry": { "type": "Polygon", "coordinates": [ [ [ -6.0, 40.0 ], [ -6.0, 50.0 ], [ 26.0, 50.0 ], [ 26.0, 40.0 ], [ -6.0, 40.0 ] ] ] } },
{ "type": "Feature", "properties": { "region_id": "12", "name": "Caucasus and Middle East" }, "geometry": { "type": "Polygon", "coordinates": [ [ [ 32.0, 30.0 ], [ 32.0, 45.0 ], [ 54.0, 45.0 ], [ 54.0, 30.0 ], [ 32.0, 30.0 ] ] ] } },
{ "type": "Feature", "properties": { "region_id": "13", "name": "Central Asia" }, "geometry": { "type": "Polygon", "coordinates": [ [ [ 65.0, 46.0 ], [ 104.999998, 46.0 ], [ 105.0, 31.85 ], [ 102.0, 31.85 ], [ 101.903991, 31.787078 ], [ 101.715548, 31.821733 ], [ 101.430268, 31.733429 ], [ 101.197615, 31.780179 ], [ 101.020353, 31.961979 ], [ 100.829248, 31.850302 ], [ 100.737844, 31.855498 ], [ 100.701842, 31.795762 ], [ 100.746156, 31.562011 ], [ 100.704607, 31.367226 ], [ 100.286385, 31.639928 ], [ 100.106353, 31.554222 ], [ 99.674283, 31.673693 ], [ 99.236672, 31.910037 ], [ 99.131425, 31.837316 ], [ 98.970782, 31.88666 ], [ 99.089877, 31.717845 ], [ 99.017867, 31.60357 ], [ 99.048333, 31.551624 ], [ 98.990166, 31.411378 ], [ 98.884919, 31.351642 ], [ 98.799061, 31.19321 ], [ 98.71874, 31.276323 ], [ 98.649495, 31.286711 ], [ 98.630106, 31.229573 ], [ 98.619029, 31.156852 ], [ 98.785213, 30.993229 ], [ 98.558096, 31.026994 ], [ 98.328213, 30.96466 ], [ 98.134333, 31.024396 ], [ 98.047693, 31.130204 ], [ 97.995849, 31.232171 ], [ 98.020774, 31.346446 ], [ 97.680104, 31.907439 ], [ 97.408672, 32.039896 ], [ 97.267418, 32.032107 ], [ 97.234181, 31.969773 ], [ 97.162171, 31.95419 ], [ 97.023687, 32.019117 ], [ 96.976602, 31.943802 ], [ 96.768874, 31.946396 ], [ 96.671934, 31.816537 ], [ 96.719019, 31.767193 ], [ 96.655316, 31.673693 ], [ 96.973832, 31.294505 ], [ 96.979368, 31.19321 ], [ 97.189867, 31.117896 ], [ 97.228645, 31.026994 ], [ 97.331121, 30.998425 ], [ 97.380976, 30.925704 ], [ 97.344969, 30.780257 ], [ 97.372665, 30.663384 ], [ 97.08462, 30.645207 ], [ 97.076308, 30.603648 ], [ 97.353281, 30.146543 ], [ 97.292348, 30.045253 ], [ 97.192637, 30.089406 ], [ 97.162171, 30.006297 ], [ 96.912899, 30.034866 ], [ 96.7024, 29.988116 ], [ 96.674705, 29.845272 ], [ 96.411087, 29.891416 ], [ 96.210353, 30.096291 ], [ 96.221462, 30.152227 ], [ 96.111983, 30.219043 ], [ 95.959667, 30.234581 ], [ 95.824799, 30.452115 ], [ 95.577284, 30.497173 ], [ 95.593152, 30.543789 ], [ 95.543964, 30.590401 ], [ 95.421795, 30.579527 ], [ 95.377367, 30.503387 ], [ 95.336115, 30.651002 ], [ 95.129852, 30.674308 ], [ 95.069098, 30.584582 ], [ 95.177285, 30.509265 ], [ 95.090509, 30.303453 ], [ 95.30067, 30.210507 ], [ 95.31423, 30.141466 ], [ 95.093225, 30.160055 ], [ 95.044412, 30.046524 ], [ 95.10068, 29.931007 ], [ 95.198983, 29.891527 ], [ 95.17121, 29.816733 ], [ 95.230924, 29.737858 ], [ 95.183707, 29.657622 ], [ 95.07331, 29.624304 ], [ 94.916389, 29.408757 ], [ 94.921946, 29.347557 ], [ 94.865707, 29.368637 ], [ 94.753224, 29.276844 ], [ 94.64288, 29.294257 ], [ 94.558281, 29.207859 ], [ 94.385454, 29.139213 ], [ 94.304479, 29.156964 ], [ 94.294813, 29.084768 ], [ 94.380364, 29.009998 ], [ 94.260546, 28.915809 ], [ 94.094515, 28.878452 ], [ 94.011234, 28.787945 ], [ 93.982758, 28.826884 ], [ 93.924193, 28.765845 ], [ 93.625876, 28.67403 ], [ 93.466849, 28.687912 ], [ 93.364504, 28.757297 ], [ 93.117307, 28.76963 ], [ 92.826022, 28.701789 ], [ 92.545754, 28.766547 ], [ 92.482776, 28.75267 ], [ 92.433964, 28.623149 ], [ 92.143982, 28.650727 ], [ 91.97201, 28.788679 ], [ 91.829168, 28.679969 ], [ 91.818492, 28.610264 ], [ 91.579458, 28.471524 ], [ 91.389643, 28.522653 ], [ 91.311269, 28.596788 ], [ 91.136495, 28.522413 ], [ 91.12643, 28.439075 ], [ 90.974531, 28.580661 ], [ 90.831785, 28.46327 ], [ 90.701849, 28.470439 ], [ 90.672571, 28.413086 ], [ 90.374268, 28.431011 ], [ 90.37335, 28.298388 ], [ 90.324855, 28.234764 ], [ 90.352306, 28.17114 ], [ 90.314575, 28.145915 ], [ 90.165631, 28.180875 ], [ 90.061671, 28.13698 ], [ 89.817487, 28.230787 ], [ 89.791992, 28.177288 ], [ 89.617313, 28.155195 ], [ 89.61892, 28.233276 ], [ 89.497929, 28.248297 ], [ 89.113644, 28.164855 ], [ 88.947273, 27.998844 ], [ 88.957044, 28.287199 ], [ 88.884138, 28.471897 ], [ 88.827127, 28.452561 ], [ 88.737172, 28.505416 ], [ 88.708027, 28.604673 ], [ 88.753642, 28.685886 ], [ 88.686491, 28.742603 ], [ 88.456012, 28.634822 ], [ 88.417899, 28.667533 ], [ 88.360084, 28.639016 ], [ 88.306983, 28.685985 ], [ 87.985846, 28.746474 ], [ 87.805934, 28.885692 ], [ 87.622222, 28.750341 ], [ 87.599417, 28.814796 ], [ 87.508591, 28.801978 ], [ 87.508591, 28.91066 ], [ 87.4029, 28.943653 ], [ 87.377799, 28.897074 ], [ 87.248459, 28.877959 ], [ 86.962122, 28.879246 ], [ 86.915242, 28.796746 ], [ 86.65044, 28.912765 ], [ 86.612434, 28.85089 ], [ 86.519943, 28.934677 ], [ 86.579489, 28.979795 ], [ 86.537679, 29.050695 ], [ 86.421117, 29.072611 ], [ 86.378037, 29.12675 ], [ 86.272881, 29.045537 ], [ 86.094235, 29.000419 ], [ 86.058759, 28.923077 ], [ 86.018214, 28.942414 ], [ 85.95337, 28.87541 ], [ 85.850346, 28.960212 ], [ 85.777029, 28.924309 ], [ 85.734052, 29.071624 ], [ 85.631663, 29.082766 ], [ 85.420043, 28.97254 ], [ 85.036202, 28.985807 ], [ 84.958316, 28.845306 ], [ 84.842437, 28.813302 ], [ 84.788236, 28.831938 ], [ 84.800921, 28.872878 ], [ 84.720196, 28.833633 ], [ 84.583973, 28.920421 ], [ 84.455017, 28.778553 ], [ 84.449994, 28.838416 ], [ 84.217203, 28.90484 ], [ 84.254047, 29.018827 ], [ 84.161098, 29.039328 ], [ 84.201292, 29.232039 ], [ 83.876266, 29.293157 ], [ 83.699019, 29.165552 ], [ 83.544891, 29.173282 ], [ 83.448562, 29.279626 ], [ 83.427371, 29.40143 ], [ 83.167283, 29.610247 ], [ 83.078657, 29.594775 ], [ 82.968845, 29.65278 ], [ 82.642654, 29.933901 ], [ 82.509804, 29.929104 ], [ 82.337165, 30.035823 ], [ 82.180872, 30.045271 ], [ 82.204926, 30.142542 ], [ 82.103811, 30.23668 ], [ 82.142341, 30.317887 ], [ 82.014857, 30.335562 ], [ 82.029276, 30.527737 ], [ 82.08455, 30.549731 ], [ 82.18188, 30.499951 ], [ 82.407784, 30.538156 ], [ 82.446235, 30.616876 ], [ 82.372938, 30.655081 ], [ 82.365728, 30.726855 ], [ 82.284018, 30.706018 ], [ 82.183083, 30.828732 ], [ 82.103777, 30.794003 ], [ 82.055712, 30.879669 ], [ 81.84423, 30.937554 ], [ 81.817794, 31.025537 ], [ 81.716859, 31.069528 ], [ 81.6736, 31.034799 ], [ 81.526025, 31.112877 ], [ 81.528903, 31.170154 ], [ 81.654376, 31.220028 ], [ 81.788956, 31.210766 ], [ 81.789391, 31.387941 ], [ 81.562928, 31.567592 ], [ 81.6736, 31.896111 ], [ 81.608715, 32.037346 ], [ 81.505377, 32.081337 ], [ 81.56786, 32.153114 ], [ 81.714455, 32.167006 ], [ 81.695231, 32.224892 ], [ 81.365988, 32.292036 ], [ 81.527005, 32.377702 ], [ 81.439474, 32.561244 ], [ 81.339212, 32.623628 ], [ 81.172114, 32.609541 ], [ 80.943973, 32.721191 ], [ 80.959853, 32.785557 ], [ 80.886993, 32.909886 ], [ 80.576817, 32.822855 ], [ 80.501623, 32.859076 ], [ 80.355411, 32.720221 ], [ 79.641056, 32.716198 ], [ 79.509466, 32.774556 ], [ 79.478134, 32.865114 ], [ 79.35072, 32.971771 ], [ 79.413383, 33.166972 ], [ 79.386228, 33.19917 ], [ 79.308946, 33.183071 ], [ 79.229573, 33.231367 ], [ 79.160642, 33.177033 ], [ 78.946385, 33.385245 ], [ 78.790933, 33.364187 ], [ 78.742892, 33.313876 ], [ 78.381923, 33.505529 ], [ 78.373328, 33.6045 ], [ 78.580199, 33.695997 ], [ 78.329971, 33.941833 ], [ 78.39155, 33.98678 ], [ 78.306274, 34.098764 ], [ 78.369225, 34.222466 ], [ 78.646609, 34.154979 ], [ 78.690875, 34.07747 ], [ 79.132811, 34.207891 ], [ 79.43762, 34.095425 ], [ 79.484013, 34.174526 ], [ 79.61518, 34.225075 ], [ 79.61518, 34.373561 ], [ 79.519641, 34.453154 ], [ 79.415152, 34.414629 ], [ 79.287265, 34.452541 ], [ 79.179055, 34.427266 ], [ 79.021657, 34.547318 ], [ 78.982307, 34.642095 ], [ 78.759326, 34.746352 ], [ 78.607882, 34.926326 ], [ 78.452959, 34.908048 ], [ 78.444499, 34.953273 ], [ 78.566148, 35.069492 ], [ 78.408458, 35.327652 ], [ 78.437464, 35.3684 ], [ 78.047768, 35.578292 ], [ 77.898551, 35.528104 ], [ 77.919935, 35.723766 ], [ 78.017937, 35.965263 ], [ 77.969824, 36.06045 ], [ 77.821934, 36.083367 ], [ 77.763132, 36.162693 ], [ 77.576032, 36.226151 ], [ 77.470904, 36.425343 ], [ 77.148385, 36.442968 ], [ 77.14304, 36.554023 ], [ 76.644121, 36.716193 ], [ 76.367932, 36.911861 ], [ 76.318038, 36.989419 ], [ 76.344767, 37.211528 ], [ 76.232508, 37.391329 ], [ 76.119313, 37.249037 ], [ 75.737526, 37.336899 ], [ 75.701766, 37.238769 ], [ 75.589882, 37.218229 ], [ 75.479153, 37.234207 ], [ 75.418019, 37.325489 ], [ 75.174642, 37.340324 ], [ 75.037382, 37.470405 ], [ 74.986632, 37.416775 ], [ 74.817074, 37.456713 ], [ 74.095017, 37.182858 ], [ 73.903546, 37.016263 ], [ 73.60134, 37.000284 ], [ 73.509064, 36.950079 ], [ 73.234544, 36.993441 ], [ 72.97156, 36.94323 ], [ 72.676277, 37.020825 ], [ 72.390224, 36.991155 ], [ 71.875784, 36.692197 ], [ 71.705076, 36.660245 ], [ 71.592036, 36.72871 ], [ 71.346792, 36.5481 ], [ 71.152913, 36.64016 ], [ 71.023657, 36.949597 ], [ 70.822021, 36.96494 ], [ 70.76515, 37.06468 ], [ 70.630732, 37.049331 ], [ 70.581613, 37.110709 ], [ 70.527327, 37.080023 ], [ 70.514401, 37.161857 ], [ 70.429095, 37.22323 ], [ 70.276578, 37.220674 ], [ 70.054258, 36.944484 ], [ 69.790584, 36.88055 ], [ 69.754396, 36.831958 ], [ 69.707862, 36.924023 ], [ 69.477791, 37.051893 ], [ 69.345309, 37.034819 ], [ 69.340782, 37.0 ], [ 65.0, 37.0 ], [ 65.0, 46.0 ] ] ] } },
{ "type": "Feature", "properties": { "region_id": "14", "name": "South Asia West" }, "geometry": { "type": "Polygon", "coordinates": [ [ [ 75.4, 26.0 ], [ 65.0, 26.0 ], [ 65.0, 37.0 ], [ 69.340782, 37.0 ], [ 69.345309, 37.034819 ], [ 69.477791, 37.051893 ], [ 69.707862, 36.924023 ], [ 69.754396, 36.831958 ], [ 69.790584, 36.88055 ], [ 70.054258, 36.944484 ], [ 70.276578, 37.220674 ], [ 70.429095, 37.22323 ], [ 70.514401, 37.161857 ], [ 70.527327, 37.080023 ], [ 70.581613, 37.110709 ], [ 70.630732, 37.049331 ], [ 70.76515, 37.06468 ], [ 70.822021, 36.96494 ], [ 71.023657, 36.949597 ], [ 71.152913, 36.64016 ], [ 71.346792, 36.5481 ], [ 71.592036, 36.72871 ], [ 71.705076, 36.660245 ], [ 71.875784, 36.692197 ], [ 72.390224, 36.991155 ], [ 72.676277, 37.020825 ], [ 72.97156, 36.94323 ], [ 73.234544, 36.993441 ], [ 73.509064, 36.950079 ], [ 73.60134, 37.000284 ], [ 73.903546, 37.016263 ], [ 74.095017, 37.182858 ], [ 74.817074, 37.456713 ], [ 74.986632, 37.416775 ], [ 75.037382, 37.470405 ], [ 75.174642, 37.340324 ], [ 75.418019, 37.325489 ], [ 75.479153, 37.234207 ], [ 75.589882, 37.218229 ], [ 75.701766, 37.238769 ], [ 75.737526, 37.336899 ], [ 76.119313, 37.249037 ], [ 76.232508, 37.391329 ], [ 76.344767, 37.211528 ], [ 76.318038, 36.989419 ], [ 76.367932, 36.911861 ], [ 76.644121, 36.716193 ], [ 77.14304, 36.554023 ], [ 77.148385, 36.442968 ], [ 77.470904, 36.425343 ], [ 77.576032, 36.226151 ], [ 77.763132, 36.162693 ], [ 77.821934, 36.083367 ], [ 77.969824, 36.06045 ], [ 78.017937, 35.965263 ], [ 77.919935, 35.723766 ], [ 77.898551, 35.528104 ], [ 78.047768, 35.578292 ], [ 78.437464, 35.3684 ], [ 78.408458, 35.327652 ], [ 78.566148, 35.069492 ], [ 78.444499, 34.953273 ], [ 78.452959, 34.908048 ], [ 78.607882, 34.926326 ], [ 78.759326, 34.746352 ], [ 78.982307, 34.642095 ], [ 79.021657, 34.547318 ], [ 79.179055, 34.427266 ], [ 79.287265, 34.452541 ], [ 79.415152, 34.414629 ], [ 79.519641, 34.453154 ], [ 79.61518, 34.373561 ], [ 79.61518, 34.225075 ], [ 79.484013, 34.174526 ], [ 79.43762, 34.095425 ], [ 79.132811, 34.207891 ], [ 78.690875, 34.07747 ], [ 78.646609, 34.154979 ], [ 78.369225, 34.222466 ], [ 78.306274, 34.098764 ], [ 78.39155, 33.98678 ], [ 78.329971, 33.941833 ], [ 78.580199, 33.695997 ], [ 78.373328, 33.6045 ], [ 78.381923, 33.505529 ], [ 78.742892, 33.313876 ], [ 78.790933, 33.364187 ], [ 78.946385, 33.385245 ], [ 79.160642, 33.177033 ], [ 79.229573, 33.231367 ], [ 79.308946, 33.183071 ], [ 79.386228, 33.19917 ], [ 79.413383, 33.166972 ], [ 79.35072, 32.971771 ], [ 79.478134, 32.865114 ], [ 79.509466, 32.774556 ], [ 79.641056, 32.716198 ], [ 80.355411, 32.720221 ], [ 80.501623, 32.859076 ], [ 80.576817, 32.822855 ], [ 80.886993, 32.909886 ], [ 80.959853, 32.785557 ], [ 80.943973, 32.721191 ], [ 81.172114, 32.609541 ], [ 81.339212, 32.623628 ], [ 81.439474, 32.561244 ], [ 81.527005, 32.377702 ], [ 81.365988, 32.292036 ], [ 81.695231, 32.224892 ], [ 81.714455, 32.167006 ], [ 81.56786, 32.153114 ], [ 81.505377, 32.081337 ], [ 81.608715, 32.037346 ], [ 81.6736, 31.896111 ], [ 81.562928, 31.567592 ], [ 81.789391, 31.387941 ], [ 81.788956, 31.210766 ], [ 81.654376, 31.220028 ], [ 81.528903, 31.170154 ], [ 81.526025, 31.112877 ], [ 81.6736, 31.034799 ], [ 81.716859, 31.069528 ], [ 81.817794, 31.025537 ], [ 81.84423, 30.937554 ], [ 82.055712, 30.879669 ], [ 82.103777, 30.794003 ], [ 82.183083, 30.828732 ], [ 82.284018, 30.706018 ], [ 82.365728, 30.726855 ], [ 82.372938, 30.655081 ], [ 82.446235, 30.616876 ], [ 82.407784, 30.538156 ], [ 82.18188, 30.499951 ], [ 82.08455, 30.549731 ], [ 82.029276, 30.527737 ], [ 82.014857, 30.335562 ], [ 81.696257, 30.418758 ], [ 81.473423, 30.391774 ], [ 81.219431, 30.557338 ], [ 80.817327, 30.667103 ], [ 80.683509, 30.676301 ], [ 80.618098, 30.617935 ], [ 80.681558, 30.558567 ], [ 80.672463, 30.437767 ], [ 80.54969, 30.441445 ], [ 80.236582, 30.574509 ], [ 80.184612, 30.664037 ], [ 80.237231, 30.683045 ], [ 80.245674, 30.749883 ], [ 79.982192, 30.880141 ], [ 79.933921, 30.861631 ], [ 79.865448, 30.969132 ], [ 79.686688, 30.990531 ], [ 79.615826, 30.930567 ], [ 79.561876, 30.95203 ], [ 79.499064, 31.053676 ], [ 79.314704, 31.13992 ], [ 79.23639, 31.332432 ], [ 79.1075, 31.450249 ], [ 79.030005, 31.418675 ], [ 79.022659, 31.343212 ], [ 78.948428, 31.360153 ], [ 78.900296, 31.273909 ], [ 78.82029, 31.275974 ], [ 78.77842, 31.180166 ], [ 78.587388, 31.220506 ], [ 78.493178, 31.192773 ], [ 78.07151, 31.409815 ], [ 77.598201, 31.245718 ], [ 77.456887, 31.250762 ], [ 77.378671, 31.108654 ], [ 77.144098, 31.092688 ], [ 77.069586, 30.859971 ], [ 77.246848, 30.639789 ], [ 77.377572, 30.573667 ], [ 77.423325, 30.148606 ], [ 77.377572, 30.060445 ], [ 76.998472, 29.909313 ], [ 76.913502, 29.808557 ], [ 76.652055, 28.775815 ], [ 76.410216, 28.227956 ], [ 76.155306, 27.919392 ], [ 75.932768, 27.774595 ], [ 75.900393, 27.673802 ], [ 75.4, 27.628341 ], [ 75.4, 26.0 ] ] ] } },
{ "type": "Feature", "properties": { "region_id": "15", "name": "South Asia East" }, "geometry": { "type": "Polygon", "coordinates": [ [ [ 75.4, 26.0 ], [ 75.4, 27.628341 ], [ 75.900393, 27.673802 ], [ 75.932768, 27.774595 ], [ 76.155306, 27.919392 ], [ 76.410216, 28.227956 ], [ 76.652055, 28.775815 ], [ 76.913502, 29.808557 ], [ 76.998472, 29.909313 ], [ 77.377572, 30.060445 ], [ 77.423325, 30.148606 ], [ 77.377572, 30.573667 ], [ 77.246848, 30.639789 ], [ 77.069586, 30.859971 ], [ 77.144098, 31.092688 ], [ 77.378671, 31.108654 ], [ 77.429858, 31.239009 ], [ 77.663622, 31.263368 ], [ 77.683425, 31.305307 ], [ 77.754853, 31.292948 ], [ 77.969132, 31.39633 ], [ 78.10653, 31.407991 ], [ 78.166746, 31.334526 ], [ 78.307378, 31.311271 ], [ 78.493178, 31.192773 ], [ 78.587388, 31.220506 ], [ 78.77842, 31.180166 ], [ 78.82029, 31.275974 ], [ 78.900296, 31.273909 ], [ 78.948428, 31.360153 ], [ 79.022659, 31.343212 ], [ 79.030005, 31.418675 ], [ 79.1075, 31.450249 ], [ 79.23639, 31.332432 ], [ 79.314704, 31.13992 ], [ 79.499064, 31.053676 ], [ 79.561876, 30.95203 ], [ 79.615826, 30.930567 ], [ 79.686688, 30.990531 ], [ 79.865448, 30.969132 ], [ 79.933921, 30.861631 ], [ 79.982192, 30.880141 ], [ 80.245674, 30.749883 ], [ 80.237231, 30.683045 ], [ 80.184612, 30.664037 ], [ 80.236582, 30.574509 ], [ 80.54969, 30.441445 ], [ 80.672463, 30.437767 ], [ 80.681558, 30.558567 ], [ 80.618098, 30.617935 ], [ 80.683509, 30.676301 ], [ 80.817327, 30.667103 ], [ 81.219431, 30.557338 ], [ 81.473423, 30.391774 ], [ 81.696257, 30.418758 ], [ 82.142341, 30.317887 ], [ 82.103811, 30.23668 ], [ 82.204926, 30.142542 ], [ 82.180872, 30.045271 ], [ 82.337165, 30.035823 ], [ 82.509804, 29.929104 ], [ 82.642654, 29.933901 ], [ 82.968845, 29.65278 ], [ 83.078657, 29.594775 ], [ 83.167283, 29.610247 ], [ 83.427371, 29.40143 ], [ 83.448562, 29.279626 ], [ 83.544891, 29.173282 ], [ 83.699019, 29.165552 ], [ 83.876266, 29.293157 ], [ 84.201292, 29.232039 ], [ 84.161098, 29.039328 ], [ 84.254047, 29.018827 ], [ 84.217203, 28.90484 ], [ 84.449994, 28.838416 ], [ 84.455017, 28.778553 ], [ 84.583973, 28.920421 ], [ 84.720196, 28.833633 ], [ 84.800921, 28.872878 ], [ 84.788236, 28.831938 ], [ 84.842437, 28.813302 ], [ 84.958316, 28.845306 ], [ 85.036202, 28.985807 ], [ 85.420043, 28.97254 ], [ 85.631663, 29.082766 ], [ 85.734052, 29.071624 ], [ 85.777029, 28.924309 ], [ 85.850346, 28.960212 ], [ 85.95337, 28.87541 ], [ 86.018214, 28.942414 ], [ 86.058759, 28.923077 ], [ 86.094235, 29.000419 ], [ 86.272881, 29.045537 ], [ 86.378037, 29.12675 ], [ 86.421117, 29.072611 ], [ 86.537679, 29.050695 ], [ 86.579489, 28.979795 ], [ 86.519943, 28.934677 ], [ 86.612434, 28.85089 ], [ 86.65044, 28.912765 ], [ 86.915242, 28.796746 ], [ 86.962122, 28.879246 ], [ 87.248459, 28.877959 ], [ 87.377799, 28.897074 ], [ 87.4029, 28.943653 ], [ 87.508591, 28.91066 ], [ 87.508591, 28.801978 ], [ 87.599417, 28.814796 ], [ 87.622222, 28.750341 ], [ 87.805934, 28.885692 ], [ 87.985846, 28.746474 ], [ 88.306983, 28.685985 ], [ 88.360084, 28.639016 ], [ 88.417899, 28.667533 ], [ 88.456012, 28.634822 ], [ 88.686491, 28.742603 ], [ 88.753642, 28.685886 ], [ 88.708027, 28.604673 ], [ 88.737172, 28.505416 ], [ 88.891743, 28.461585 ], [ 88.957044, 28.287199 ], [ 88.939142, 28.017485 ], [ 88.977314, 27.997963 ], [ 88.994354, 28.073063 ], [ 89.077857, 28.097263 ], [ 89.113644, 28.164855 ], [ 89.497929, 28.248297 ], [ 89.61892, 28.233276 ], [ 89.617313, 28.155195 ], [ 89.791992, 28.177288 ], [ 89.817487, 28.230787 ], [ 90.061671, 28.13698 ], [ 90.165631, 28.180875 ], [ 90.314575, 28.145915 ], [ 90.352306, 28.17114 ], [ 90.324855, 28.234764 ], [ 90.37335, 28.298388 ], [ 90.374268, 28.431011 ], [ 90.672571, 28.413086 ], [ 90.701849, 28.470439 ], [ 90.831785, 28.46327 ], [ 90.974531, 28.580661 ], [ 91.12643, 28.439075 ], [ 91.136495, 28.522413 ], [ 91.311269, 28.596788 ], [ 91.389643, 28.522653 ], [ 91.579458, 28.471524 ], [ 91.818492, 28.610264 ], [ 91.829168, 28.679969 ], [ 91.97201, 28.788679 ], [ 92.143982, 28.650727 ], [ 92.433964, 28.623149 ], [ 92.482776, 28.75267 ], [ 92.545754, 28.766547 ], [ 92.826022, 28.701789 ], [ 93.117307, 28.76963 ], [ 93.364504, 28.757297 ], [ 93.466849, 28.687912 ], [ 93.625876, 28.67403 ], [ 93.924193, 28.765845 ], [ 93.982758, 28.826884 ], [ 94.011234, 28.787945 ], [ 94.094515, 28.878452 ], [ 94.260546, 28.915809 ], [ 94.380364, 29.009998 ], [ 94.294813, 29.084768 ], [ 94.304479, 29.156964 ], [ 94.385454, 29.139213 ], [ 94.558281, 29.207859 ], [ 94.64288, 29.294257 ], [ 94.753224, 29.276844 ], [ 94.865707, 29.368637 ], [ 94.921946, 29.347557 ], [ 94.916389, 29.408757 ], [ 95.07331, 29.624304 ], [ 95.183707, 29.657622 ], [ 95.230924, 29.737858 ], [ 95.17121, 29.816733 ], [ 95.198983, 29.891527 ], [ 95.10068, 29.931007 ], [ 95.044412, 30.046524 ], [ 95.093225, 30.160055 ], [ 95.31423, 30.141466 ], [ 95.30067, 30.210507 ], [ 95.090509, 30.303453 ], [ 95.177285, 30.509265 ], [ 95.069098, 30.584582 ], [ 95.129852, 30.674308 ], [ 95.336115, 30.651002 ], [ 95.377367, 30.503387 ], [ 95.421795, 30.579527 ], [ 95.543964, 30.590401 ], [ 95.593152, 30.543789 ], [ 95.577284, 30.497173 ], [ 95.824799, 30.452115 ], [ 95.959667, 30.234581 ], [ 96.111983, 30.219043 ], [ 96.221462, 30.152227 ], [ 96.210353, 30.096291 ], [ 96.411087, 29.891416 ], [ 96.674705, 29.845272 ], [ 96.7024, 29.988116 ], [ 96.912899, 30.034866 ], [ 97.162171, 30.006297 ], [ 97.192637, 30.089406 ], [ 97.292348, 30.045253 ], [ 97.353281, 30.146543 ], [ 97.076308, 30.603648 ], [ 97.08462, 30.645207 ], [ 97.372665, 30.663384 ], [ 97.344969, 30.780257 ], [ 97.380976, 30.925704 ], [ 97.331121, 30.998425 ], [ 97.228645, 31.026994 ], [ 97.189867, 31.117896 ], [ 96.979368, 31.19321 ], [ 96.973832, 31.294505 ], [ 96.655316, 31.673693 ], [ 96.719019, 31.767193 ], [ 96.671934, 31.816537 ], [ 96.768874, 31.946396 ], [ 96.976602, 31.943802 ], [ 97.023687, 32.019117 ], [ 97.162171, 31.95419 ], [ 97.234181, 31.969773 ], [ 97.267418, 32.032107 ], [ 97.408672, 32.039896 ], [ 97.680104, 31.907439 ], [ 98.020774, 31.346446 ], [ 97.995849, 31.232171 ], [ 98.047693, 31.130204 ], [ 98.134333, 31.024396 ], [ 98.328213, 30.96466 ], [ 98.558096, 31.026994 ], [ 98.785213, 30.993229 ], [ 98.619029, 31.156852 ], [ 98.630106, 31.229573 ], [ 98.649495, 31.286711 ], [ 98.71874, 31.276323 ], [ 98.799061, 31.19321 ], [ 98.884919, 31.351642 ], [ 98.990166, 31.411378 ], [ 99.048333, 31.551624 ], [ 99.017867, 31.60357 ], [ 99.089877, 31.717845 ], [ 98.970782, 31.88666 ], [ 99.131425, 31.837316 ], [ 99.236672, 31.910037 ], [ 99.674283, 31.673693 ], [ 100.106353, 31.554222 ], [ 100.286385, 31.639928 ], [ 100.704607, 31.367226 ], [ 100.746156, 31.562011 ], [ 100.701842, 31.795762 ], [ 100.737844, 31.855498 ], [ 100.829248, 31.850302 ], [ 101.020353, 31.961979 ], [ 101.197615, 31.780179 ], [ 101.430268, 31.733429 ], [ 101.715548, 31.821733 ], [ 101.903991, 31.787078 ], [ 102.0, 31.85 ], [ 104.999998, 31.85 ], [ 105.0, 26.0 ], [ 75.4, 26.0 ] ] ] } },
{ "type": "Feature", "properties": { "region_id": "16", "name": "Low Latitudes" }, "geometry": { "type": "Polygon", "coordinates": [ [ [ -100.0, -25.0 ], [ -100.0, 20.0 ], [ 142.0, 20.0 ], [ 142.0, -25.0 ], [ -100.0, -25.0 ] ] ] } },
{ "type": "Feature", "properties": { "region_id": "17", "name": "Southern Andes" }, "geometry": { "type": "Polygon", "coordinates": [ [ [ -62.0, -25.0 ], [ -62.0, -57.0 ], [ -82.0, -57.0 ], [ -82.0, -25.0 ], [ -62.0, -25.0 ] ] ] } },
{ "type": "Feature", "properties": { "region_id": "18", "name": "New Zealand" }, "geometry": { "type": "Polygon", "coordinates": [ [ [ 179.0, -49.0 ], [ 164.0, -49.0 ], [ 164.0, -34.0 ], [ 179.0, -34.0 ], [ 179.0, -49.0 ] ] ] } },
{ "type": "Feature", "properties": { "region_id": "19", "name": "Antarctic and Subantarctic" }, "geometry": { "type": "Polygon", "coordinates": [ [ [ 180.0, -90.0 ], [ -180.0, -90.0 ], [ -180.0, -45.5 ], [ -82.0, -45.5 ], [ -82.0, -57.0 ], [ -62.0, -57.0 ], [ -62.0, -45.5 ], [ 164.0, -45.5 ], [ 164.0, -49.0 ], [ 179.0, -49.0 ], [ 179.0, -45.5 ], [ 180.0, -45.5 ], [ 180.0, -90.0 ] ], [ [ -103.222765737326995, -73.619067815180301 ], [ -103.223441561819996, -73.619873906099897 ], [ -103.23303905, -73.631321340000099 ], [ -103.222765737326995, -73.619067815180301 ] ], [ [ 131.800327816667988, -66.218242840381905 ], [ 131.800271015952006, -66.218252032276396 ], [ 131.8, -66.21829589 ], [ 131.800327816667988, -66.218242840381905 ] ], [ [ -67.305673639713106, -69.361215089733307 ], [ -67.305676356845694, -69.3612324758532 ], [ -67.305649339999903, -69.36126914 ], [ -67.305673639713106, -69.361215089733307 ] ], [ [ -67.30567331, -69.361212980000104 ], [ -67.3057167, -69.361119310000305 ], [ -67.305673639713106, -69.361215089733307 ], [ -67.30567331, -69.361212980000104 ] ] ] } }
]
}
